NORAD_CAT_ID,OBJECT_NAME,OBJECT_TYPE,EPOCH,MEAN_MOTION,ECCENTRICITY,INCLINATION,RA_OF_ASC_NODE,ARG_OF_PERICENTER,MEAN_ANOMALY,BSTAR,MEAN_MOTION_DOT,MEAN_MOTION_DDOT,TLE_LINE0,TLE_LINE1,TLE_LINE2,SEMIMAJOR_AXIS,PERIOD,APOGEE,PERIGEE,DECAYED
50182.0,STARLINK-3277,PAYLOAD,2022-02-07 22:00:00,15.72198235,0.0002607,53.2174,111.2476,13.978,148.6679,-0.0053398999999999,-0.00664714,0.0,0 STARLINK-3277,1 50182U 21125AC  22038.91667824 -.00664714  00000-0 -53399-2 0  9996,2 50182  53.2174 111.2476 0002607  13.9780 148.6679 15.72198235  3709,6730.753000000002,91.592,354.372,350.86300000000006,0.0
50182.0,STARLINK-3277,PAYLOAD,2022-02-08 14:00:01,15.7125935,0.0002648,53.2177,107.9625,333.9766,2.9807,-0.0054638,-0.00654328,0.0,0 STARLINK-3277,1 50182U 21125AC  22039.58334491 -.00654328  00000-0 -54638-2 0  9998,2 50182  53.2177 107.9625 0002648 333.9766   2.9807 15.71259350 11028,6733.434,91.646,357.082,353.516,0.0
50182.0,STARLINK-3277,PAYLOAD,2022-02-08 22:00:01,15.70696068,0.0007602,53.2178,106.3204,286.5558,136.836,-0.0044675,-0.00531486,0.0,0 STARLINK-3277,1 50182U 21125AC  22039.91668981 -.00531486  00000-0 -44675-2 0  9998,2 50182  53.2178 106.3204 0007602 286.5558 136.8360 15.70696068 11078,6735.043000000002,91.679,362.028,351.788,0.0
50182.0,STARLINK-3277,PAYLOAD,2022-02-09 06:00:00,15.70330308,0.0007047999999999,53.2177,104.6783,302.672,206.3532,-0.0057477,-0.00662703,0.0,0 STARLINK-3277,1 50182U 21125AC  22040.25001157 -.00662703  00000-0 -57477-2 0  9994,2 50182  53.2177 104.6783 0007048 302.6720 206.3532 15.70330308 11127,6736.089,91.7,362.702,353.207,0.0
50182.0,STARLINK-3277,PAYLOAD,2022-02-09 13:00:21,15.70181889,0.0006109,53.2182,103.2427,262.7107,97.3217,-0.0027822,-0.00331516,0.0,0 STARLINK-3277,1 50182U 21125AC  22040.54191801 -.00331516  00000-0 -27822-2 0  9998,2 50182  53.2182 103.2427 0006109 262.7107  97.3217 15.70181889 11693,6736.514,91.709,362.494,354.26300000000015,0.0
50182.0,STARLINK-3277,PAYLOAD,2022-02-09 22:00:00,15.69390351,0.0001665999999999,53.2175,101.4006,300.4828,18.3698,-0.0058588,-0.0064886,0.0,0 STARLINK-3277,1 50182U 21125AC  22040.91667824 -.00648860  00000-0 -58588-2 0  9998,2 50182  53.2175 101.4006 0001666 300.4828  18.3698 15.69390351 11231,6738.779,91.755,361.766,359.521,0.0
50182.0,STARLINK-3277,PAYLOAD,2022-02-10 11:56:04,15.68879432,0.0001045,53.2178,98.5432,334.1867,25.9099,-0.0018061,-0.00206795,0.0,0 STARLINK-3277,1 50182U 21125AC  22041.49727665 -.00206795  00000-0 -18061-2 0  9991,2 50182  53.2178  98.5432 0001045 334.1867  25.9099 15.68879432 11848,6740.2419999999975,91.785,362.811,361.402,0.0
50182.0,STARLINK-3277,PAYLOAD,2022-02-10 18:03:07,15.68523399,8.02e-05,53.219,97.292,27.8094,332.2967,-0.0018866,-0.0021269,0.0,0 STARLINK-3277,1 50182U 21125AC  22041.75216654 -.00212690  00000-0 -18866-2 0  9995,2 50182  53.2190  97.2920 0000802  27.8094 332.2967 15.68523399 11361,6741.261,91.806,363.667,362.586,0.0
50182.0,STARLINK-3277,PAYLOAD,2022-02-10 22:00:00,15.67996906,0.0001315999999999,53.2177,96.4924,56.4212,152.9626,-0.0063201,-0.00659768,0.0,0 STARLINK-3277,1 50182U 21125AC  22041.91667824 -.00659768  00000-0 -63201-2 0  9996,2 50182  53.2177  96.4924 0001316  56.4212 152.9626 15.67996906  3684,6742.77,91.837,365.523,363.74800000000016,0.0
50182.0,STARLINK-3277,PAYLOAD,2022-02-11 06:00:00,15.67531134,0.0001266,53.2178,94.8591,59.3202,232.4529,-0.006456,-0.00661072,0.0,0 STARLINK-3277,1 50182U 21125AC  22042.25001157 -.00661072  00000-0 -64560-2 0  9995,2 50182  53.2178  94.8591 0001266  59.3202 232.4529 15.67531134 11449,6744.106,91.864,366.825,365.117,0.0
50182.0,STARLINK-3277,PAYLOAD,2022-02-11 12:24:45,15.67440576,0.0002753,53.2177,93.5383,49.0989,311.0267,-0.001796,-0.00194231,0.0,0 STARLINK-3277,1 50182U 21125AC  22042.51719715 -.00194231  00000-0 -17960-2 0  9990,2 50182  53.2177  93.5383 0002753  49.0989 311.0267 15.67440576 11489,6744.366,91.87,368.088,364.374,0.0
50182.0,STARLINK-3277,PAYLOAD,2022-02-11 20:03:59,15.66999374,0.000255,53.2181,91.9746,56.7878,303.3384,-0.0018914,-0.00200721,0.0,0 STARLINK-3277,1 50182U 21125AC  22042.83610488 -.00200721  00000-0 -18914-2 0  9994,2 50182  53.2181  91.9746 0002550  56.7878 303.3384 15.66999374 12058,6745.632,91.895,369.217,365.777,0.0
50182.0,STARLINK-3277,PAYLOAD,2022-02-11 22:00:01,15.66595414,0.0001334,53.2174,91.5946,45.3598,49.5775,-0.0066581,-0.00656593,0.0,0 STARLINK-3277,1 50182U 21125AC  22042.91668981 -.00656593  00000-0 -66581-2 0  9999,2 50182  53.2174  91.5946 0001334  45.3598  49.5775 15.66595414 11543,6746.791,91.919,369.556,367.756,0.0
50182.0,STARLINK-3277,PAYLOAD,2022-02-12 12:54:43,15.661421300000002,0.0001441999999999,53.2181,88.5398,42.7876,317.3253,-0.0030836,-0.00311516,0.0,0 STARLINK-3277,1 50182U 21125AC  22043.53800496 -.00311516  00000-0 -30836-2 0  9994,2 50182  53.2181  88.5398 0001442  42.7876 317.3253 15.66142130 12167,6748.093000000003,91.946,370.931,368.985,0.0
50182.0,STARLINK-3277,PAYLOAD,2022-02-12 22:00:00,15.65196566,0.0001269,53.2176,86.70700000000002,48.3251,286.9884,-0.0070627,-0.00658085,0.0,0 STARLINK-3277,1 50182U 21125AC  22043.91667824 -.00658085  00000-0 -70627-2 0  9999,2 50182  53.2176  86.7070 0001269  48.3251 286.9884 15.65196566 11705,6750.81,92.001,373.532,371.819,0.0
50182.0,STARLINK-3277,PAYLOAD,2022-02-13 14:00:01,15.642609900000002,0.0001319,53.2174,83.4562,53.7565,79.0479,-0.0072735,-0.0065323,0.0,0 STARLINK-3277,1 50182U 21125AC  22044.58334491 -.00653230  00000-0 -72735-2 0  9993,2 50182  53.2174  83.4562 0001319  53.7565  79.0479 15.64260990  3701,6753.502,92.056,376.258,374.476,0.0
50182.0,STARLINK-3277,PAYLOAD,2022-02-13 22:00:00,15.63796169,0.0001318,53.2175,81.8294,57.5671,153.1426,-0.007443,-0.00655986,0.0,0 STARLINK-3277,1 50182U 21125AC  22044.91667824 -.00655986  00000-0 -74430-2 0  9993,2 50182  53.2175  81.8294 0001318  57.5671 153.1426 15.63796169 11868,6754.84,92.084,377.595,375.815,0.0
50182.0,STARLINK-3277,PAYLOAD,2022-02-14 14:00:01,15.6286385,0.0001185,53.2172,78.5857,53.0159,311.8195,-0.0077326999999999,-0.00656767,0.0,0 STARLINK-3277,1 50182U 21125AC  22045.58334491 -.00656767  00000-0 -77327-2 0  9994,2 50182  53.2172  78.5857 0001185  53.0159 311.8195 15.62863850  3696,6757.526,92.139,380.192,378.591,0.0
50182.0,STARLINK-3277,PAYLOAD,2022-02-14 20:00:01,15.62515749,0.000131,53.2176,77.3679,47.942,284.1138,-0.0078921,-0.00660877,0.0,0 STARLINK-3277,1 50182U 21125AC  22045.83334491 -.00660877  00000-0 -78921-2 0  9990,2 50182  53.2176  77.3679 0001310  47.9420 284.1138 15.62515749 12007,6758.53,92.159,381.28,379.51,0.0
50182.0,STARLINK-3277,PAYLOAD,2022-02-15 14:00:01,15.61357694,0.0001483,53.2172,73.7232,51.3477,180.5326,-0.0063161,-0.00514773,0.0,0 STARLINK-3277,1 50182U 21125AC  22046.58334491 -.00514773  00000-0 -63161-2 0  9996,2 50182  53.2172  73.7232 0001483  51.3477 180.5326 15.61357694  3662,6761.871,92.227,384.739,382.734,0.0
50182.0,STARLINK-3277,PAYLOAD,2022-02-15 22:00:01,15.60996227,0.0001351,53.2175,72.1051,47.6435,258.7866,-0.0082961,-0.00655179,0.0,0 STARLINK-3277,1 50182U 21125AC  22046.91668981 -.00655179  00000-0 -82961-2 0  9992,2 50182  53.2175  72.1051 0001351  47.6435 258.7866 15.60996227 12176,6762.915,92.249,385.694,383.866,0.0
50182.0,STARLINK-3277,PAYLOAD,2022-02-16 14:00:01,15.60065044,0.0001343,53.2172,68.8746,48.3432,45.4197,-0.0086349999999999,-0.00657641,0.0,0 STARLINK-3277,1 50182U 21125AC  22047.58334491 -.00657641  00000-0 -86350-2 0  9994,2 50182  53.2172  68.8746 0001343  48.3432  45.4197 15.60065044  3691,6765.606,92.304,388.38,386.562,0.0
50182.0,STARLINK-3277,PAYLOAD,2022-02-16 22:00:00,15.59597856,0.0001548,53.2172,67.2583,43.2168,123.4064,-0.0087824,-0.00657054,0.0,0 STARLINK-3277,1 50182U 21125AC  22047.91667824 -.00657054  00000-0 -87824-2 0  9995,2 50182  53.2172  67.2583 0001548  43.2168 123.4064 15.59597856 12330,6766.956999999999,92.331,389.87,387.775,0.0
50182.0,STARLINK-3277,PAYLOAD,2022-02-17 14:00:01,15.58575423,0.0001412,53.2171,64.0328,50.9929,259.713,-0.0073414,-0.0053624,0.0,0 STARLINK-3277,1 50182U 21125AC  22048.58334491 -.00536240  00000-0 -73414-2 0  9993,2 50182  53.2171  64.0328 0001412  50.9929 259.7130 15.58575423  3669,6769.916,92.392,392.737,390.825,0.0
50182.0,STARLINK-3277,PAYLOAD,2022-02-17 22:00:00,15.581971,0.0001338,53.2173,62.4216,43.8809,337.9561,-0.0092457,-0.00655803,0.0,0 STARLINK-3277,1 50182U 21125AC  22048.91667824 -.00655803  00000-0 -92457-2 0  9994,2 50182  53.2173  62.4216 0001338  43.8809 337.9561 15.58197100 12483,6771.012,92.414,393.783,391.971,0.0
50182.0,STARLINK-3277,PAYLOAD,2022-02-18 14:00:01,15.57266159,0.0001443,53.2173,59.2045,49.6876,112.8197,-0.0096246,-0.0065885,0.0,0 STARLINK-3277,1 50182U 21125AC  22049.58334491 -.00658850  00000-0 -96246-2 0  9994,2 50182  53.2173  59.2045 0001443  49.6876 112.8197 15.57266159  3702,6773.71,92.47,396.55300000000005,394.598,0.0
50182.0,STARLINK-3277,PAYLOAD,2022-02-18 20:00:01,15.56913554,0.0001506999999999,53.2175,57.9972,41.3496,83.3334,-0.0096736,-0.00653904,0.0,0 STARLINK-3277,1 50182U 21125AC  22049.83334491 -.00653904  00000-0 -96736-2 0  9991,2 50182  53.2175  57.9972 0001507  41.3496  83.3334 15.56913554 12629,6774.733,92.491,397.619,395.577,0.0
50182.0,STARLINK-3277,PAYLOAD,2022-02-19 14:00:01,15.557719400000002,0.000135,53.2171,54.3829,38.8482,330.5135,-0.0080764,-0.00531272,0.0,0 STARLINK-3277,1 50182U 21125AC  22050.58334491 -.00531272  00000-0 -80764-2 0  9992,2 50182  53.2171  54.3829 0001350  38.8482 330.5135 15.55771940  3669,6778.047,92.559,400.827,398.997,0.0
50182.0,STARLINK-3277,PAYLOAD,2022-02-19 22:00:00,15.55313723,0.0001797,53.2172,52.7767,39.6415,37.5306,-0.0084297,-0.00544326,0.0,0 STARLINK-3277,1 50182U 21125AC  22050.91667824 -.00544326  00000-0 -84297-2 0  9997,2 50182  53.2172  52.7767 0001797  39.6415  37.5306 15.55313723 12792,6779.378000000002,92.586,402.461,400.025,0.0
